{"type": "FeatureCollection", "features": [ {"type": "Feature", "properties": {"norad_id": 38144, "name": "FENGYUN 1C DEB", "group": "fengyun-1c-debris", "lat": -75.89925064868538, "lon": -43.24131933036652, "alt_km": 1003.3819008346918, "timestamp": "2025-12-17T15:50:10.069757+00:00", "meta": {"OBJECT_NAME": "FENGYUN 1C DEB", "OBJECT_ID": "1999-025EQR", "EPOCH": "2025-12-12T07:21:41.538528", "MEAN_MOTION": 13.59024242, "ECCENTRICITY": 0.02903277, "INCLINATION": 98.9688, "RA_OF_ASC_NODE": 170.8072, "ARG_OF_PERICENTER": 192.7812, "MEAN_ANOMALY": 166.5857, "EPHEMERIS_TYPE": 0, "CLASSIFICATION_TYPE": "U", "NORAD_CAT_ID": 38144, "ELEMENT_SET_NO": 999, "REV_AT_EPOCH": 61031, "BSTAR": 0.0024533733, "MEAN_MOTION_DOT": 2.337e-05, "MEAN_MOTION_DDOT": 0}, "tle": {"line1": "1 38144U 99025EQR 25346.30673077  .00002337  00000+0  24534-2 0  9992", "line2": "2 38144  98.9688 170.8072 0290327 192.7812 166.5857 13.59024242610319"}}, "geometry": {"type": "Point", "coordinates": [-43.24131933036652, -75.89925064868538]}}, {"type": "Feature", "properties": {"norad_id": 38146, "name": "FENGYUN 1C DEB", "group": "fengyun-1c-debris", "lat": 24.49181516451942, "lon": -102.7606804326917, "alt_km": 635.9677936246708, "timestamp": "2025-12-17T15:50:10.069768+00:00", "meta": {"OBJECT_NAME": "FENGYUN 1C DEB", "OBJECT_ID": "1999-025EQT", "EPOCH": "2025-12-14T23:46:10.490880", "MEAN_MOTION": 14.59261898, "ECCENTRICITY": 0.02023753, "INCLINATION": 99.4835, "RA_OF_ASC_NODE": 69.8237, "ARG_OF_PERICENTER": 96.2502, "MEAN_ANOMALY": 81.1132, "EPHEMERIS_TYPE": 0, "CLASSIFICATION_TYPE": "U", "NORAD_CAT_ID": 38146, "ELEMENT_SET_NO": 999, "REV_AT_EPOCH": 31912, "BSTAR": 0.00052520697, "MEAN_MOTION_DOT": 3.232e-05, "MEAN_MOTION_DDOT": 0}, "tle": {"line1": "1 38146U 99025EQT 25348.99039920  .00003232  00000+0  52521-3 0  9997", "line2": "2 38146  99.4835  69.8237 0202375  96.2502  81.1132 14.59261898319125"}}, "geometry": {"type": "Point", "coordinates": [-102.7606804326917, 24.49181516451942]}}, {"type": "Feature", "properties": {"norad_id": 38147, "name": "FENGYUN 1C DEB", "group": "fengyun-1c-debris", "lat": 45.18712171568681, "lon": -2.968792914660183, "alt_km": 827.6109926928766, "timestamp": "2025-12-17T15:50:10.069779+00:00", "meta": {"OBJECT_NAME": "FENGYUN 1C DEB", "OBJECT_ID": "1999-025EQU", "EPOCH": "2025-12-16T19:22:38.483904", "MEAN_MOTION": 14.23455891, "ECCENTRICITY": 0.00496768, "INCLINATION": 98.5582, "RA_OF_ASC_NODE": 4.9202, "ARG_OF_PERICENTER": 288.1797, "MEAN_ANOMALY": 71.3977, "EPHEMERIS_TYPE": 0, "CLASSIFICATION_TYPE": "U", "NORAD_CAT_ID": 38147, "ELEMENT_SET_NO": 999, "REV_AT_EPOCH": 60445, "BSTAR": 0.00050376812, "MEAN_MOTION_DOT": 1.116e-05, "MEAN_MOTION_DDOT": 0}, "tle": {"line1": "1 38147U 99025EQU 25350.80738986  .00001116  00000+0  50377-3 0  9995", "line2": "2 38147  98.5582   4.9202 0049676 288.1797  71.3977 14.23455891604458"}}, "geometry": {"type": "Point", "coordinates": [-2.968792914660183, 45.18712171568681]}}, {"type": "Feature", "properties": {"norad_id": 38149, "name": "FENGYUN 1C DEB", "group": "fengyun-1c-debris", "lat": -51.05735768181092, "lon": 153.18764670491615, "alt_km": 806.9600700747278, "timestamp": "2025-12-17T15:50:10.069789+00:00", "meta": {"OBJECT_NAME": "FENGYUN 1C DEB", "OBJECT_ID": "1999-025EQW", "EPOCH": "2025-12-07T17:18:01.960128", "MEAN_MOTION": 14.25910713, "ECCENTRICITY": 0.00777044, "INCLINATION": 98.3566, "RA_OF_ASC_NODE": 334.1881, "ARG_OF_PERICENTER": 175.9559, "MEAN_ANOMALY": 184.2267, "EPHEMERIS_TYPE": 0, "CLASSIFICATION_TYPE": "U", "NORAD_CAT_ID": 38149, "ELEMENT_SET_NO": 999, "REV_AT_EPOCH": 70416, "BSTAR": 0.00036135678, "MEAN_MOTION_DOT": 8.47e-06, "MEAN_MOTION_DDOT": 0}, "tle": {"line1": "1 38149U 99025EQW 25341.72085602  .00000847  00000+0  36136-3 0  9995", "line2": "2 38149  98.3566 334.1881 0077704 175.9559 184.2267 14.25910713704169"}}, "geometry": {"type": "Point", "coordinates": [153.18764670491615, -51.05735768181092]}}, {"type": "Feature", "properties": {"norad_id": 38155, "name": "FENGYUN 1C DEB", "group": "fengyun-1c-debris", "lat": 25.15438563046768, "lon": 79.82938154907507, "alt_km": 756.2188524076919, "timestamp": "2025-12-17T15:50:10.069799+00:00", "meta": {"OBJECT_NAME": "FENGYUN 1C DEB", "OBJECT_ID": "1999-025ERC", "EPOCH": "2025-12-09T23:26:42.825120", "MEAN_MOTION": 14.2501054, "ECCENTRICITY": 0.00946971, "INCLINATION": 98.4476, "RA_OF_ASC_NODE": 248.4308, "ARG_OF_PERICENTER": 135.2408, "MEAN_ANOMALY": 225.6463, "EPHEMERIS_TYPE": 0, "CLASSIFICATION_TYPE": "U", "NORAD_CAT_ID": 38155, "ELEMENT_SET_NO": 999, "REV_AT_EPOCH": 63736, "BSTAR": 0.0028448127, "MEAN_MOTION_DOT": 6.943e-05, "MEAN_MOTION_DDOT": 0}, "tle": {"line1": "1 38155U 99025ERC 25343.97688455  .00006943  00000+0  28448-2 0  9995", "line2": "2 38155  98.4476 248.4308 0094697 135.2408 225.6463 14.25010540637364"}}, "geometry": {"type": "Point", "coordinates": [79.82938154907507, 25.15438563046768]}}, {"type": "Feature", "properties": {"norad_id": 38157, "name": "FENGYUN 1C DEB", "group": "fengyun-1c-debris", "lat": 30.745177369155027, "lon": 84.89979515792342, "alt_km": 682.9323431484045, "timestamp": "2025-12-17T15:50:10.069809+00:00", "meta": {"OBJECT_NAME": "FENGYUN 1C DEB", "OBJECT_ID": "1999-025ERE", "EPOCH": "2025-12-17T05:01:50.221920", "MEAN_MOTION": 14.21753306, "ECCENTRICITY": 0.02742146, "INCLINATION": 99.6572, "RA_OF_ASC_NODE": 258.5938, "ARG_OF_PERICENTER": 101.8209, "MEAN_ANOMALY": 261.3858, "EPHEMERIS_TYPE": 0, "CLASSIFICATION_TYPE": "U", "NORAD_CAT_ID": 38157, "ELEMENT_SET_NO": 999, "REV_AT_EPOCH": 76311, "BSTAR": 0.00045273929, "MEAN_MOTION_DOT": 1.403e-05, "MEAN_MOTION_DDOT": 0}, "tle": {"line1": "1 38157U 99025ERE 25351.20960905  .00001403  00000+0  45274-3 0  9998", "line2": "2 38157  99.6572 258.5938 0274214 101.8209 261.3858 14.21753306763118"}}, "geometry": {"type": "Point", "coordinates": [84.89979515792342, 30.745177369155027]}}, {"type": "Feature", "properties": {"norad_id": 38159, "name": "FENGYUN 1C DEB", "group": "fengyun-1c-debris", "lat": -68.50316117488468, "lon": 38.80080907613848, "alt_km": 879.2766283084175, "timestamp": "2025-12-17T15:50:10.069820+00:00", "meta": {"OBJECT_NAME": "FENGYUN 1C DEB", "OBJECT_ID": "1999-025ERG", "EPOCH": "2025-12-04T22:05:20.152032", "MEAN_MOTION": 14.03448484, "ECCENTRICITY": 0.005704, "INCLINATION": 99.3156, "RA_OF_ASC_NODE": 230.39, "ARG_OF_PERICENTER": 2.347, "MEAN_ANOMALY": 357.7952, "EPHEMERIS_TYPE": 0, "CLASSIFICATION_TYPE": "U", "NORAD_CAT_ID": 38159, "ELEMENT_SET_NO": 999, "REV_AT_EPOCH": 83002, "BSTAR": 0.0010527, "MEAN_MOTION_DOT": 1.625e-05, "MEAN_MOTION_DDOT": 0}, "tle": {"line1": "1 38159U 99025ERG 25338.92037213  .00001625  00000+0  10527-2 0  9999", "line2": "2 38159  99.3156 230.3900 0057040   2.3470 357.7952 14.03448484830021"}}, "geometry": {"type": "Point", "coordinates": [38.80080907613848, -68.50316117488468]}}, {"type": "Feature", "properties": {"norad_id": 38163, "name": "FENGYUN 1C DEB", "group": "fengyun-1c-debris", "lat": -34.227541787121886, "lon": -158.05315131146148, "alt_km": 825.8457190071476, "timestamp": "2025-12-17T15:50:10.069830+00:00", "meta": {"OBJECT_NAME": "FENGYUN 1C DEB", "OBJECT_ID": "1999-025ERL", "EPOCH": "2025-12-17T07:58:56.132832", "MEAN_MOTION": 14.05927102, "ECCENTRICITY": 0.00761661, "INCLINATION": 99.1285, "RA_OF_ASC_NODE": 27.8969, "ARG_OF_PERICENTER": 229.5346, "MEAN_ANOMALY": 129.9165, "EPHEMERIS_TYPE": 0, "CLASSIFICATION_TYPE": "U", "NORAD_CAT_ID": 38163, "ELEMENT_SET_NO": 999, "REV_AT_EPOCH": 24606, "BSTAR": 0.00076662024, "MEAN_MOTION_DOT": 1.242e-05, "MEAN_MOTION_DDOT": 0}, "tle": {"line1": "1 38163U 99025ERL 25351.33259413  .00001242  00000+0  76662-3 0  9990", "line2": "2 38163  99.1285  27.8969 0076166 229.5346 129.9165 14.05927102246067"}}, "geometry": {"type": "Point", "coordinates": [-158.05315131146148, -34.227541787121886]}}, {"type": "Feature", "properties": {"norad_id": 38166, "name": "FENGYUN 1C DEB", "group": "fengyun-1c-debris", "lat": 1.4274952011390543, "lon": -84.81711612536867, "alt_km": 822.7831670575533, "timestamp": "2025-12-17T15:50:10.069840+00:00", "meta": {"OBJECT_NAME": "FENGYUN 1C DEB", "OBJECT_ID": "1999-025ERP", "EPOCH": "2025-12-16T05:26:45.938976", "MEAN_MOTION": 14.30993928, "ECCENTRICITY": 0.00520425, "INCLINATION": 99.0778, "RA_OF_ASC_NODE": 93.4587, "ARG_OF_PERICENTER": 34.262, "MEAN_ANOMALY": 326.1901, "EPHEMERIS_TYPE": 0, "CLASSIFICATION_TYPE": "U", "NORAD_CAT_ID": 38166, "ELEMENT_SET_NO": 999, "REV_AT_EPOCH": 63822, "BSTAR": 0.0018694892, "MEAN_MOTION_DOT": 4.947e-05, "MEAN_MOTION_DDOT": 0}, "tle": {"line1": "1 38166U 99025ERP 25350.22692059  .00004947  00000+0  18695-2 0  9993", "line2": "2 38166  99.0778  93.4587 0052042  34.2620 326.1901 14.30993928638223"}}, "geometry": {"type": "Point", "coordinates": [-84.81711612536867, 1.4274952011390543]}}, {"type": "Feature", "properties": {"norad_id": 38169, "name": "FENGYUN 1C DEB", "group": "fengyun-1c-debris", "lat": -46.66388445195818, "lon": -23.974678100803796, "alt_km": 666.8906304545244, "timestamp": "2025-12-17T15:50:10.069851+00:00", "meta": {"OBJECT_NAME": "FENGYUN 1C DEB", "OBJECT_ID": "1999-025ERS", "EPOCH": "2025-12-17T04:37:40.598400", "MEAN_MOTION": 14.71570377, "ECCENTRICITY": 0.00320132, "INCLINATION": 98.9779, "RA_OF_ASC_NODE": 325.865, "ARG_OF_PERICENTER": 54.7995, "MEAN_ANOMALY": 305.6199, "EPHEMERIS_TYPE": 0, "CLASSIFICATION_TYPE": "U", "NORAD_CAT_ID": 38169, "ELEMENT_SET_NO": 999, "REV_AT_EPOCH": 61334, "BSTAR": 0.002130707, "MEAN_MOTION_DOT": 0.00013312, "MEAN_MOTION_DDOT": 0}, "tle": {"line1": "1 38169U 99025ERS 25351.19283100  .00013312  00000+0  21307-2 0  9996", "line2": "2 38169  98.9779 325.8650 0032013  54.7995 305.6199 14.71570377613347"}}, "geometry": {"type": "Point", "coordinates": [-23.974678100803796, -46.66388445195818]}}]}